SHIJIAN-28 (SJ-28)      
1 66549U 25277A   25359.56189755 -.00000337  00000+0  00000+0 0  9995
2 66549   4.9871 274.7549 0000997 127.1328  11.4336  1.00264850   417
CZ-7A R/B               
1 66550U 25277B   25360.17323146  .04976202 -21169-6  31720-2 0  9999
2 66550  14.3386 261.8830 6428177 204.1589 102.8537  3.54037207   761
USA 568                 
1 66551U 24134K   25336.66670139 -.01709685  00000+0 -74303-2 0  9990
2 66551  53.1571 236.7807 0000717 110.7411 313.9012 15.87051116  2624
GLOBAL-33               
1 66554U 25267A   25360.94411114  .00016705  00000+0  53895-3 0  9990
2 66554  42.0212 334.9853 0005087 190.0574 170.0163 15.31813416  5589
STARLINK-35699          
1 66557U 25268A   25361.16668980 -.02022252  00000+0 -72413-1 0  9997
2 66557  43.0005  37.0787 0001332 252.4456  93.4920 15.31340941  6051
STARLINK-35695          
1 66558U 25268B   25361.16668980 -.02023897  00000+0 -70592-1 0  9990
2 66558  43.0006  37.0340 0001411 257.7994 106.5632 15.32176214  6058
STARLINK-35419          
1 66559U 25268C   25361.16668980 -.01987892  00000+0 -59742-1 0  9998
2 66559  43.0007  36.8140 0001320 279.3033 175.8822 15.37312401  6053
STARLINK-35411          
1 66560U 25268D   25361.16668980 -.02002825  00000+0 -59192-1 0  9994
2 66560  42.9998  36.7903 0001302 279.6599 185.4276 15.37850416  6051
STARLINK-35305          
1 66561U 25268E   25361.16668980 -.02012456  00000+0 -56303-1 0  9997
2 66561  43.0008  36.7228 0001205 287.4958 205.1631 15.39528017  5992
STARLINK-35579          
1 66562U 25268F   25361.16668980 -.01982602  00000+0 -56961-1 0  9996
2 66562  43.0003  36.7553 0001319 284.1324 195.0347 15.38670197  6051
STARLINK-35437          
1 66563U 25268G   25361.16668980 -.02058574  00000+0 -56135-1 0  9993
2 66563  43.0008  36.6894 0001103 289.2052 216.3965 15.40383183  5993
STARLINK-35358          
1 66564U 25268H   25361.16668980 -.02045786  00000+0 -54201-1 0  9997
2 66564  43.0002  36.6594 0001290 279.0374 238.9468 15.41217538  6053
